[{"OBJECT_NAME":"OBJECT D","OBJECT_ID":"2024-092D","EPOCH":"2026-03-09T21:12:33.501312","MEAN_MOTION":15.33078357,"ECCENTRICITY":0.00083397,"INCLINATION":97.6418,"RA_OF_ASC_NODE":198.2302,"ARG_OF_PERICENTER":141.9853,"MEAN_ANOMALY":218.1979,"EPHEMERIS_TYPE":0,"CLASSIFICATION_TYPE":"U","NORAD_CAT_ID":59776,"ELEMENT_SET_NO":999,"REV_AT_EPOCH":10051,"BSTAR":0.00076511005,"MEAN_MOTION_DOT":0.00024443,"MEAN_MOTION_DDOT":0},{"OBJECT_NAME":"STARLINK-34635","OBJECT_ID":"2025-147G","EPOCH":"2026-03-09T18:02:31.174944","MEAN_MOTION":15.30196292,"ECCENTRICITY":6.856e-5,"INCLINATION":53.1591,"RA_OF_ASC_NODE":242.295,"ARG_OF_PERICENTER":72.7511,"MEAN_ANOMALY":287.3564,"EPHEMERIS_TYPE":0,"CLASSIFICATION_TYPE":"U","NORAD_CAT_ID":64761,"ELEMENT_SET_NO":999,"REV_AT_EPOCH":3876,"BSTAR":0.00076429501,"MEAN_MOTION_DOT":0.00022343,"MEAN_MOTION_DDOT":0}]
